{"type": "FeatureCollection", "features": [{"type": "Feature", "properties": {"featurecla": "Admin-0 country", "scalerank": 4, "LABELRANK": 3, "SOVEREIGNT": "Sri Lanka", "SOV_A3": "LKA", "ADM0_DIF": 0, "LEVEL": 2, "TYPE": "Sovereign country", "TLC": "1", "ADMIN": "Sri Lanka", "ADM0_A3": "LKA", "GEOU_DIF": 0, "GEOUNIT": "Sri Lanka", "GU_A3": "LKA", "SU_DIF": 0, "SUBUNIT": "Sri Lanka", "SU_A3": "LKA", "BRK_DIFF": 0, "NAME": "Sri Lanka", "NAME_LONG": "Sri Lanka", "BRK_A3": "LKA", "BRK_NAME": "Sri Lanka", "BRK_GROUP": null, "ABBREV": "Sri L.", "POSTAL": "LK", "FORMAL_EN": "Democratic Socialist Republic of Sri Lanka", "FORMAL_FR": null, "NAME_CIAWF": "Sri Lanka", "NOTE_ADM0": null, "NOTE_BRK": null, "NAME_SORT": "Sri Lanka", "NAME_ALT": null, "MAPCOLOR7": 3, "MAPCOLOR8": 5, "MAPCOLOR9": 4, "MAPCOLOR13": 9, "POP_EST": 21803000, "POP_RANK": 15, "POP_YEAR": 2019, "GDP_MD": 84008, "GDP_YEAR": 2019, "ECONOMY": "6. Developing region", "INCOME_GRP": "4. Lower middle income", "FIPS_10": "CE", "ISO_A2": "LK", "ISO_A2_EH": "LK", "ISO_A3": "LKA", "ISO_A3_EH": "LKA", "ISO_N3": "144", "ISO_N3_EH": "144", "UN_A3": "144", "WB_A2": "LK", "WB_A3": "LKA", "WOE_ID": 23424778, "WOE_ID_EH": 23424778, "WOE_NOTE": "Exact WOE match as country", "ADM0_ISO": "LKA", "ADM0_DIFF": null, "ADM0_TLC": "LKA", "ADM0_A3_US": "LKA", "ADM0_A3_FR": "LKA", "ADM0_A3_RU": "LKA", "ADM0_A3_ES": "LKA", "ADM0_A3_CN": "LKA", "ADM0_A3_TW": "LKA", "ADM0_A3_IN": "LKA", "ADM0_A3_NP": "LKA", "ADM0_A3_PK": "LKA", "ADM0_A3_DE": "LKA", "ADM0_A3_GB": "LKA", "ADM0_A3_BR": "LKA", "ADM0_A3_IL": "LKA", "ADM0_A3_PS": "LKA", "ADM0_A3_SA": "LKA", "ADM0_A3_EG": "LKA", "ADM0_A3_MA": "LKA", "ADM0_A3_PT": "LKA", "ADM0_A3_AR": "LKA", "ADM0_A3_JP": "LKA", "ADM0_A3_KO": "LKA", "ADM0_A3_VN": "LKA", "ADM0_A3_TR": "LKA", "ADM0_A3_ID": "LKA", "ADM0_A3_PL": "LKA", "ADM0_A3_GR": "LKA", "ADM0_A3_IT": "LKA", "ADM0_A3_NL": "LKA", "ADM0_A3_SE": "LKA", "ADM0_A3_BD": "LKA", "ADM0_A3_UA": "LKA", "ADM0_A3_UN": -99, "ADM0_A3_WB": -99, "CONTINENT": "Asia", "REGION_UN": "Asia", "SUBREGION": "Southern Asia", "REGION_WB": "South Asia", "NAME_LEN": 9, "LONG_LEN": 9, "ABBREV_LEN": 6, "TINY": -99, "HOMEPART": 1, "MIN_ZOOM": 0, "MIN_LABEL": 3, "MAX_LABEL": 8, "LABEL_X": 80.704823, "LABEL_Y": 7.581097, "NE_ID": 1159321025, "WIKIDATAID": "Q854", "NAME_AR": "\u0633\u0631\u064a\u0644\u0627\u0646\u0643\u0627", "NAME_BN": "\u09b6\u09cd\u09b0\u09c0\u09b2\u0999\u09cd\u0995\u09be", "NAME_DE": "Sri Lanka", "NAME_EN": "Sri Lanka", "NAME_ES": "Sri Lanka", "NAME_FA": "\u0633\u0631\u06cc\u0644\u0627\u0646\u06a9\u0627", "NAME_FR": "Sri Lanka", "NAME_EL": "\u03a3\u03c1\u03b9 \u039b\u03ac\u03bd\u03ba\u03b1", "NAME_HE": "\u05e1\u05e8\u05d9 \u05dc\u05e0\u05e7\u05d4", "NAME_HI": "\u0936\u094d\u0930\u0940\u0932\u0902\u0915\u093e", "NAME_HU": "Sr\u00ed Lanka", "NAME_ID": "Sri Lanka", "NAME_IT": "Sri Lanka", "NAME_JA": "\u30b9\u30ea\u30e9\u30f3\u30ab", "NAME_KO": "\uc2a4\ub9ac\ub791\uce74", "NAME_NL": "Sri Lanka", "NAME_PL": "Sri Lanka", "NAME_PT": "Sri Lanka", "NAME_RU": "\u0428\u0440\u0438-\u041b\u0430\u043d\u043a\u0430", "NAME_SV": "Sri Lanka", "NAME_TR": "Sri Lanka", "NAME_UK": "\u0428\u0440\u0456-\u041b\u0430\u043d\u043a\u0430", "NAME_UR": "\u0633\u0631\u06cc \u0644\u0646\u06a9\u0627", "NAME_VI": "Sri Lanka", "NAME_ZH": "\u65af\u91cc\u5170\u5361", "NAME_ZHT": "\u65af\u91cc\u862d\u5361", "FCLASS_ISO": "Admin-0 country", "TLC_DIFF": null, "FCLASS_TLC": "Admin-0 country", "FCLASS_US": null, "FCLASS_FR": null, "FCLASS_RU": null, "FCLASS_ES": null, "FCLASS_CN": null, "FCLASS_TW": null, "FCLASS_IN": null, "FCLASS_NP": null, "FCLASS_PK": null, "FCLASS_DE": null, "FCLASS_GB": null, "FCLASS_BR": null, "FCLASS_IL": null, "FCLASS_PS": null, "FCLASS_SA": null, "FCLASS_EG": null, "FCLASS_MA": null, "FCLASS_PT": null, "FCLASS_AR": null, "FCLASS_JP": null, "FCLASS_KO": null, "FCLASS_VN": null, "FCLASS_TR": null, "FCLASS_ID": null, "FCLASS_PL": null, "FCLASS_GR": null, "FCLASS_IT": null, "FCLASS_NL": null, "FCLASS_SE": null, "FCLASS_BD": null, "FCLASS_UA": null}, "bbox": [79.707812, 5.949365, 81.876953, 9.812695], "geometry": {"type": "MultiPolygon", "coordinates": [[[[79.969531, 9.630664], [79.906836, 9.619824], [79.857422, 9.686377], [79.845703, 9.714648], [79.858594, 9.734375], [79.872266, 9.744336], [79.888477, 9.741162], [79.911914, 9.67915], [79.969531, 9.630664]]], [[[79.874805, 9.050732], [79.903711, 8.975], [79.821094, 9.026855], [79.766797, 9.069775], [79.747656, 9.10459], [79.859961, 9.065723], [79.874805, 9.050732]]], [[[79.982324, 9.812695], [80.078418, 9.807471], [80.180957, 9.81001], [80.252832, 9.796338], [80.375977, 9.642334], [80.711133, 9.366357], [80.893457, 9.085889], [80.910059, 9.024512], [80.935449, 8.971484], [80.979199, 8.956934], [81.016016, 8.932617], [81.198242, 8.661963], [81.219238, 8.608398], [81.216211, 8.549414], [81.226953, 8.505518], [81.274609, 8.483594], [81.333984, 8.47207], [81.372852, 8.431445], [81.422168, 8.215234], [81.422168, 8.147852], [81.435938, 8.118896], [81.66543, 7.782471], [81.678711, 7.741553], [81.67627, 7.710938], [81.68291, 7.684473], [81.727344, 7.625], [81.79668, 7.464795], [81.832031, 7.428418], [81.874121, 7.28833], [81.876953, 7.020459], [81.861426, 6.90127], [81.818555, 6.756201], [81.767773, 6.614307], [81.712695, 6.511865], [81.637402, 6.425146], [81.37998, 6.240918], [81.30625, 6.203857], [80.971094, 6.088379], [80.724121, 5.979053], [80.495801, 5.949365], [80.267383, 6.009766], [80.095313, 6.153174], [80.007227, 6.364404], [79.946973, 6.584521], [79.859375, 6.829297], [79.79209, 7.585205], [79.759961, 7.796484], [79.707812, 8.065674], [79.712988, 8.182324], [79.749805, 8.294238], [79.749707, 8.048877], [79.783496, 8.018457], [79.808887, 8.05], [79.831934, 8.304053], [79.850879, 8.411572], [79.941797, 8.691504], [79.943652, 8.741162], [79.92793, 8.846436], [79.928906, 8.899219], [80.064844, 9.095654], [80.099609, 9.209961], [80.118359, 9.326855], [80.110938, 9.453271], [80.086328, 9.577832], [80.196094, 9.538135], [80.256445, 9.494775], [80.317969, 9.46543], [80.367969, 9.480469], [80.42832, 9.480957], [80.385352, 9.548779], [80.257617, 9.611279], [80.045801, 9.649902], [79.979492, 9.699365], [79.954004, 9.742334], [79.966992, 9.792627], [79.982324, 9.812695]]]]}}]}